      2.10          N: GNSS NAV DATA                        RINEX VERSION / TYPE
fic2rin                                 08/29/2018 00:19:42 PGM / RUN BY / DATE
                                                            END OF HEADER
 6 18  8 28 11 59 44.0 3.708600997925e-04-4.661160346586e-12 0.000000000000e+00
    1.300000000000e+01-5.593750000000e+00 4.723411034743e-09 5.561206275135e-02
   -2.533197402954e-07 9.750331519172e-04 2.468004822731e-06 5.153684064865e+03
    2.159840000000e+05-2.607703208923e-08 1.898278840899e+00-3.725290298462e-09
    9.717467910286e-01 3.394375000000e+02-1.088962631070e+00-8.442851678661e-09
   -1.146476326769e-10 1.000000000000e+00 2.016000000000e+03 0.000000000000e+00
    2.400000000000e+00 0.000000000000e+00 4.656612873077e-09 1.300000000000e+01
    2.088060000000e+05 4.000000000000e+00
16 18  8 28 11 59 44.0 1.160986721516e-05-1.705302565824e-12 0.000000000000e+00
    9.000000000000e+00-2.946875000000e+01 3.841231431279e-09 2.983039672810e+00
   -1.523643732071e-06 9.984412114136e-03 1.113675534725e-05 5.153690393448e+03
    2.159840000000e+05-1.229345798492e-07-1.097089037133e-01-9.499490261078e-08
    9.864484213763e-01 1.797500000000e+02 5.213784472880e-01-7.465310960167e-09
   -3.150131215609e-10 1.000000000000e+00 2.016000000000e+03 0.000000000000e+00
    2.400000000000e+00 0.000000000000e+00-1.071020960808e-08 9.000000000000e+00
    2.088060000000e+05 4.000000000000e+00
 8 18  8 28 11 59 44.0-1.131896860898e-04-1.250555214938e-12 0.000000000000e+00
    4.700000000000e+01 8.815625000000e+01 4.394468761549e-09 2.369480919923e+00
    4.725530743599e-06 3.490485367365e-03 9.251758456230e-06 5.153618576050e+03
    2.159840000000e+05 2.421438694000e-08 8.408900327994e-01 1.359730958939e-07
    9.696295243217e-01 2.054687500000e+02-4.016885816332e-01-7.973189258193e-09
    2.914407111040e-10 1.000000000000e+00 2.016000000000e+03 0.000000000000e+00
    2.400000000000e+00 0.000000000000e+00 5.122274160385e-09 4.700000000000e+01
    2.088060000000e+05 4.000000000000e+00
 1 18  8 28 12  0  0.0-8.148048073053e-05-4.320099833421e-12 0.000000000000e+00
    9.900000000000e+01-9.937500000000e+00 4.799485632127e-09-1.778595393066e-01
   -4.880130290985e-07 8.087520720437e-03 2.324581146240e-06 5.153660039902e+03
    2.160000000000e+05 3.539025783539e-08 1.906603582081e+00 6.891787052155e-08
    9.720507371292e-01 3.369062500000e+02 6.873828861534e-01-8.543213001970e-09
   -1.725071856167e-10 1.000000000000e+00 2.016000000000e+03 0.000000000000e+00
    3.400000000000e+00 0.000000000000e+00 5.587935447693e-09 9.900000000000e+01
    2.088060000000e+05 4.000000000000e+00
 3 18  8 28 12  0  0.0 1.282361336052e-04 5.456968210638e-12 0.000000000000e+00
    9.000000000000e+00-8.031250000000e+01 4.302322066126e-09-1.187609960608e+00
   -4.243105649948e-06 1.671887468547e-03 9.929761290550e-06 5.153694950104e+03
    2.160000000000e+05 5.960464477539e-08 2.949457757783e+00-3.539025783539e-08
    9.619245454584e-01 1.908125000000e+02 5.914549252945e-01-7.932116118761e-09
   -4.164459180726e-10 1.000000000000e+00 2.016000000000e+03 0.000000000000e+00
    2.400000000000e+00 0.000000000000e+00 1.862645149231e-09 9.000000000000e+00
    2.088060000000e+05 4.000000000000e+00
 2 18  8 28 12  0  0.0 1.486111432314e-05-1.114131009672e-11 0.000000000000e+00
    6.600000000000e+01 8.187500000000e+00 5.334507917953e-09 1.262703681477e-01
    5.085021257401e-07 1.801620621700e-02 2.617016434669e-06 5.153795139313e+03
    2.160000000000e+05-2.626329660416e-07 1.843519709127e+00 1.098960638046e-07
    9.511112592016e-01 3.269062500000e+02-1.835500891911e+00-9.031090466882e-09
   -9.464679956196e-11 1.000000000000e+00 2.016000000000e+03 0.000000000000e+00
    2.400000000000e+00 0.000000000000e+00-2.048909664154e-08 6.600000000000e+01
    2.088060000000e+05 4.000000000000e+00
 7 18  8 28 12  0  0.0 1.340191811323e-04-6.593836587854e-12 0.000000000000e+00
    1.800000000000e+01-3.843750000000e+00 5.090926343231e-09-8.245506290891e-01
    4.097819328308e-08 1.205933722667e-02 3.565102815628e-06 5.153636150360e+03
    2.160000000000e+05 2.086162567139e-07-1.223024388263e+00 1.471489667892e-07
    9.573417395261e-01 3.052812500000e+02-2.497558084062e+00-8.554642049465e-09
    7.107438910502e-11 1.000000000000e+00 2.016000000000e+03 0.000000000000e+00
    2.400000000000e+00 0.000000000000e+00-1.117587089539e-08 1.800000000000e+01
    2.088060000000e+05 4.000000000000e+00
 5 18  8 28 12  0  0.0-2.633314579725e-06 4.547473508865e-13 0.000000000000e+00
    6.000000000000e+01-9.931250000000e+01 4.626621288776e-09 2.780621384545e+00
   -5.215406417847e-06 5.588880623691e-03 9.745359420776e-06 5.153778274536e+03
    2.160000000000e+05 3.725290298462e-08 2.926372108813e+00-6.146728992462e-08
    9.487987704658e-01 1.856562500000e+02 6.674939765120e-01-8.109980670390e-09
   -4.160887603384e-10 1.000000000000e+00 2.016000000000e+03 0.000000000000e+00
    2.400000000000e+00 0.000000000000e+00-1.117587089539e-08 6.000000000000e+01
    2.088060000000e+05 4.000000000000e+00
 4 18  8 28 12  0  0.0 9.345635771751e-05 3.865352482535e-12 0.000000000000e+00
    1.730000000000e+02-3.950000000000e+01 5.319507293116e-09-3.039606819185e+00
   -2.197921276093e-06 9.773340425454e-03 1.075677573681e-05 5.153726739883e+03
    2.160000000000e+05 1.676380634308e-08-1.641344126285e-01-1.806765794754e-07
    9.784158761371e-01 1.820625000000e+02 9.285160344998e-01-7.611745631187e-09
   -3.278707999920e-10 1.000000000000e+00 2.016000000000e+03 0.000000000000e+00
    3.400000000000e+00 6.300000000000e+01-1.955777406693e-08 1.730000000000e+02
    2.088060000000e+05 4.000000000000e+00
25 18  8 28 12  0  0.0-6.384318694472e-04-5.798028723802e-12 0.000000000000e+00
    1.300000000000e+01-4.256250000000e+01 4.242319566781e-09-1.843020238173e+00
   -2.257525920868e-06 7.442727684975e-03 1.035071909428e-05 5.153602094650e+03
    2.160000000000e+05 1.303851604462e-07-1.894757964275e-01-9.499490261078e-08
    9.735824152840e-01 1.856875000000e+02 8.655958679309e-01-7.769966507436e-09
   -3.153702792951e-10 1.000000000000e+00 2.016000000000e+03 0.000000000000e+00
    2.400000000000e+00 0.000000000000e+00 5.587935447693e-09 1.300000000000e+01
    2.088060000000e+05 4.000000000000e+00
23 18  8 28 12  0  0.0-2.119750715792e-04 6.821210263297e-13 0.000000000000e+00
    1.100000000000e+01 4.959375000000e+01 4.747340602934e-09 6.459785609028e-01
    2.738088369370e-06 1.265262661036e-02 1.010112464428e-05 5.153744913101e+03
    2.160000000000e+05-2.756714820862e-07-2.303322219919e+00 1.974403858185e-07
    9.435322697691e-01 1.785000000000e+02-2.331697373972e+00-8.241414716575e-09
    3.650152043484e-10 1.000000000000e+00 2.016000000000e+03 0.000000000000e+00
    2.400000000000e+00 0.000000000000e+00-2.002343535423e-08 1.100000000000e+01
    2.088060000000e+05 4.000000000000e+00
21 18  8 28 12  0  0.0-3.458024002612e-04 5.798028723802e-12 0.000000000000e+00
    9.000000000000e+00 1.025000000000e+01 5.093069289636e-09-1.945309752428e+00
    8.847564458847e-07 2.435199508909e-02 1.711770892143e-06 5.153638999939e+03
    2.160000000000e+05 3.501772880554e-07 1.849783144607e+00 3.930181264877e-07
    9.447232606358e-01 3.345312500000e+02-1.532715555389e+00-8.342490355352e-09
   -5.214502919263e-11 1.000000000000e+00 2.016000000000e+03 0.000000000000e+00
    2.400000000000e+00 0.000000000000e+00-1.024454832077e-08 9.000000000000e+00
    2.088060000000e+05 4.000000000000e+00
31 18  8 28 12  0  0.0 9.753787890077e-05-2.614797267597e-12 0.000000000000e+00
    8.000000000000e+00-5.718750000000e+00 4.905204321449e-09-1.020057698823e+00
   -5.327165126801e-07 8.831334766001e-03 3.682449460030e-06 5.153721117020e+03
    2.160000000000e+05 2.421438694000e-08-1.210121010466e+00-1.452863216400e-07
    9.619712008418e-01 3.038437500000e+02-1.168726145907e-01-8.414279059926e-09
    1.371485699313e-10 1.000000000000e+00 2.016000000000e+03 0.000000000000e+00
    2.400000000000e+00 0.000000000000e+00-1.350417733192e-08 8.000000000000e+00
    2.088060000000e+05 4.000000000000e+00
26 18  8 28 12  0  0.0-3.777677193284e-05 1.170974428533e-11 0.000000000000e+00
    1.700000000000e+01-4.131250000000e+01 4.654479592043e-09-2.363341185869e+00
   -2.244487404823e-06 2.862365217879e-03 1.025944948196e-05 5.153711698532e+03
    2.160000000000e+05-6.146728992462e-08-2.130807447426e-01-7.264316082001e-08
    9.550358397733e-01 1.820625000000e+02 7.371724661922e-02-8.039263439020e-09
   -3.317995350682e-10 1.000000000000e+00 2.016000000000e+03 0.000000000000e+00
    2.400000000000e+00 0.000000000000e+00 7.450580596924e-09 1.700000000000e+01
    2.088060000000e+05 4.000000000000e+00
29 18  8 28 12  0  0.0 3.874674439430e-04-7.275957614183e-12 0.000000000000e+00
    1.000000000000e+01 8.350000000000e+01 4.059097649138e-09 2.645238837615e+00
    4.380941390991e-06 8.304398506880e-04 8.871778845787e-06 5.153643356323e+03
    2.160000000000e+05 2.607703208923e-08 9.154028683981e-01-1.359730958939e-07
    9.844512821874e-01 2.172187500000e+02 1.549411628768e+00-7.860327414187e-09
    3.025126008641e-10 1.000000000000e+00 2.016000000000e+03 0.000000000000e+00
    2.400000000000e+00 0.000000000000e+00-1.024454832077e-08 1.000000000000e+01
    2.088060000000e+05 4.000000000000e+00
20 18  8 28 12  0  0.0 5.148965865374e-04 5.684341886081e-13 0.000000000000e+00
    1.000000000000e+01-9.334375000000e+01 5.062710882229e-09-2.913264323324e-01
   -4.788860678673e-06 4.187380545773e-03 8.372589945793e-06 5.153674957275e+03
    2.160000000000e+05-1.508742570877e-07 2.836921055366e+00-1.508742570877e-07
    9.293093252350e-01 2.056562500000e+02 2.087245282898e+00-8.371777289556e-09
   -4.103742365913e-10 1.000000000000e+00 2.016000000000e+03 0.000000000000e+00
    2.400000000000e+00 0.000000000000e+00-8.381903171539e-09 1.000000000000e+01
    2.088060000000e+05 4.000000000000e+00
